NORAD_CAT_ID,OBJECT_NAME,OBJECT_TYPE,EPOCH,MEAN_MOTION,ECCENTRICITY,INCLINATION,RA_OF_ASC_NODE,ARG_OF_PERICENTER,MEAN_ANOMALY,BSTAR,MEAN_MOTION_DOT,MEAN_MOTION_DDOT,TLE_LINE0,TLE_LINE1,TLE_LINE2,SEMIMAJOR_AXIS,PERIOD,APOGEE,PERIGEE,DECAYED
52659.0,STARLINK-3960,PAYLOAD,2023-03-05 13:56:16,15.08836975,0.0001309,53.2166,52.7022,81.0487,279.0654,0.00086893,0.00013567,0.0,0 STARLINK-3960,1 52659U 22053D   23064.58075218  .00013567  00000-0  86893-3 0  9999,2 52659  53.2166  52.7022 0001309  81.0487 279.0654 15.08836975 45140,6917.89,95.438,540.66,538.849,0.0
52659.0,STARLINK-3960,PAYLOAD,2023-03-06 10:36:17,15.08878188,0.0001462,53.2187,48.8369,93.2337,266.8823,0.0022423,0.00035616,0.0,0 STARLINK-3960,1 52659U 22053D   23065.44186477  .00035616  00000-0  22423-2 0  9992,2 52659  53.2187  48.8369 0001462  93.2337 266.8823 15.08878188 45281,6917.764,95.435,540.64,538.617,0.0
52659.0,STARLINK-3960,PAYLOAD,2023-03-06 21:44:00,15.08827686,0.000249,53.2183,46.7528,89.5225,270.6053,1.8789e-05,1.1e-07,0.0,0 STARLINK-3960,1 52659U 22053D   23065.90555603  .00000011  00000-0  18789-4 0  9997,2 52659  53.2183  46.7528 0002490  89.5225 270.6053 15.08827686 45349,6917.918,95.438,541.506,538.06,0.0
52659.0,STARLINK-3960,PAYLOAD,2023-03-07 04:05:32,15.08835827,0.0001156,53.2181,45.5639,111.3995,248.712,0.00018014,2.58e-05,0.0,0 STARLINK-3960,1 52659U 22053D   23066.17051490  .00002580  00000-0  18014-3 0  9995,2 52659  53.2181  45.5639 0001156 111.3995 248.7120 15.08835827 45395,6917.893,95.438,540.558,538.958,0.0
52659.0,STARLINK-3960,PAYLOAD,2023-03-07 15:13:14,15.08839287,8.33e-05,53.2178,43.4875,104.1569,255.9516,0.00077269,0.00012031,0.0,0 STARLINK-3960,1 52659U 22053D   23066.63419822  .00012031  00000-0  77269-3 0  9992,2 52659  53.2178  43.4875 0000833 104.1569 255.9516 15.08839287 45458,6917.883,95.438,540.324,539.171,0.0
52659.0,STARLINK-3960,PAYLOAD,2023-03-08 08:42:29,15.08847674,0.0001259,53.2192,40.2193,111.0504,249.0623,0.00048241,7.4e-05,0.0,0 STARLINK-3960,1 52659U 22053D   23067.36283869  .00007400  00000-0  48241-3 0  9995,2 52659  53.2192  40.2193 0001259 111.0504 249.0623 15.08847674 45576,6917.857,95.437,540.593,538.851,0.0
52659.0,STARLINK-3960,PAYLOAD,2023-03-08 21:25:34,15.08838536,7.62e-05,53.2177,37.8356,110.1685,249.939,0.00029318,4.381e-05,0.0,0 STARLINK-3960,1 52659U 22053D   23067.89276279  .00004381  00000-0  29318-3 0  9999,2 52659  53.2177  37.8356 0000762 110.1685 249.9390 15.08838536 45645,6917.885,95.438,540.277,539.223,0.0
52659.0,STARLINK-3960,PAYLOAD,2023-03-09 02:11:44,15.08847288,8.23e-05,53.2181,36.9463,101.9399,258.1686,0.00052458,8.072e-05,0.0,0 STARLINK-3960,1 52659U 22053D   23068.09148162  .00008072  00000-0  52458-3 0  9993,2 52659  53.2181  36.9463 0000823 101.9399 258.1686 15.08847288 45685,6917.858,95.437,540.292,539.154,0.0
52659.0,STARLINK-3960,PAYLOAD,2023-03-09 21:16:21,15.08851658,0.0001032,53.2174,33.3752,128.5417,231.5668,0.00051133,7.862e-05,0.0,0 STARLINK-3960,1 52659U 22053D   23068.88635712  .00007862  00000-0  51133-3 0  9997,2 52659  53.2174  33.3752 0001032 128.5417 231.5668 15.08851658 45791,6917.845,95.437,540.424,538.996,0.0
52659.0,STARLINK-3960,PAYLOAD,2023-03-10 03:37:53,15.08867487,9.61e-05,53.2179,32.1878,108.5258,251.5838,0.00097261,0.00015237,0.0,0 STARLINK-3960,1 52659U 22053D   23069.15131312  .00015237  00000-0  97261-3 0  9992,2 52659  53.2179  32.1878 0000961 108.5258 251.5838 15.08867487 45847,6917.796,95.436,540.326,538.997,0.0
52659.0,STARLINK-3960,PAYLOAD,2023-03-10 05:13:16,15.08877698,0.0001151,53.2173,31.8893,119.0808,241.03,0.0012862,0.00020262,0.0,0 STARLINK-3960,1 52659U 22053D   23069.21755013  .00020262  00000-0  12862-2 0  9996,2 52659  53.2173  31.8893 0001151 119.0808 241.0300 15.08877698 45858,6917.765,95.435,540.426,538.834,0.0
52659.0,STARLINK-3960,PAYLOAD,2023-03-10 17:56:22,15.08819653,0.0001095,53.2187,29.5108,91.9114,268.2004,-0.00030137,-5.078e-05,0.0,0 STARLINK-3960,1 52659U 22053D   23069.74747861 -.00005078  00000-0 -30137-3 0  9992,2 52659  53.2187  29.5108 0001095  91.9114 268.2004 15.08819653 45939,6917.943,95.439,540.565,539.05,0.0
52659.0,STARLINK-3960,PAYLOAD,2023-03-11 03:28:41,15.08830075,0.0001292,53.2178,27.7251,100.3437,259.7701,0.0013288,0.00020917,0.0,0 STARLINK-3960,1 52659U 22053D   23070.14492197  .00020917  00000-0  13288-2 0  9991,2 52659  53.2178  27.7251 0001292 100.3437 259.7701 15.08830075 45996,6917.911,95.438,540.67,538.882,0.0
52659.0,STARLINK-3960,PAYLOAD,2023-03-12 03:19:27,15.08876337,0.0001188,53.2174,23.2654,101.1855,258.9271,0.001671,0.00026433,0.0,0 STARLINK-3960,1 52659U 22053D   23071.13851426  .00026433  00000-0  16710-2 0  9997,2 52659  53.2174  23.2654 0001188 101.1855 258.9271 15.08876337 46138,6917.769,95.435,540.456,538.812,0.0
52659.0,STARLINK-3960,PAYLOAD,2023-03-12 22:24:04,15.08860736,9.82e-05,53.2174,19.697,115.6701,244.4392,0.0012498,0.0001967,0.0,0 STARLINK-3960,1 52659U 22053D   23071.93339113  .00019670  00000-0  12498-2 0  9993,2 52659  53.2174  19.6970 0000982 115.6701 244.4392 15.08860736 46263,6917.817,95.436,540.361,539.003,0.0
52659.0,STARLINK-3960,PAYLOAD,2023-03-13 01:34:51,15.08863785,0.0001503,53.2176,19.1019,129.2095,230.903,0.0012353,0.00019439,0.0,0 STARLINK-3960,1 52659U 22053D   23072.06586849  .00019439  00000-0  12353-2 0  9991,2 52659  53.2176  19.1019 0001503 129.2095 230.9030 15.08863785 46278,6917.808,95.436,540.712,538.633,0.0
52659.0,STARLINK-3960,PAYLOAD,2023-03-13 20:39:29,15.08821392,0.000119,53.2179,15.5337,105.4127,254.6997,0.00091706,0.0001433,0.0,0 STARLINK-3960,1 52659U 22053D   23072.86076362  .00014330  00000-0  91706-3 0  9998,2 52659  53.2179  15.5337 0001190 105.4127 254.6997 15.08821392 46406,6917.937,95.439,540.626,538.979,0.0
52659.0,STARLINK-3960,PAYLOAD,2023-03-14 12:33:21,15.08833882,0.0001167,53.2173,12.5626,107.1687,252.9433,0.0005445,8.387e-05,0.0,0 STARLINK-3960,1 52659U 22053D   23073.52316765  .00008387  00000-0  54450-3 0  9996,2 52659  53.2173  12.5626 0001167 107.1687 252.9433 15.08833882 46494,6917.899,95.438,540.571,538.957,0.0
52659.0,STARLINK-3960,PAYLOAD,2023-03-14 20:30:17,15.08843967,0.0001031,53.2171,11.0746,107.6362,252.4743,0.00066827,0.00010365,0.0,0 STARLINK-3960,1 52659U 22053D   23073.85436678  .00010365  00000-0  66827-3 0  9998,2 52659  53.2171  11.0746 0001031 107.6362 252.4743 15.08843967 46544,6917.868,95.437,540.446,539.02,0.0
52659.0,STARLINK-3960,PAYLOAD,2023-03-15 01:16:26,15.08862166,0.0001184,53.2172,10.1842,112.151,247.9608,0.001755,0.0002777,0.0,0 STARLINK-3960,1 52659U 22053D   23074.05308425  .00027770  00000-0  17550-2 0  9995,2 52659  53.2172  10.1842 0001184 112.1510 247.9608 15.08862166 46582,6917.813,95.436,540.497,538.859,0.0
52659.0,STARLINK-3960,PAYLOAD,2023-03-16 04:17:59,15.08856666,0.0001112,53.2162,5.1282,93.9461,266.1658,0.00091941,0.00014381,0.0,0 STARLINK-3960,1 52659U 22053D   23075.17916003  .00014381  00000-0  91941-3 0  9997,2 52659  53.2162   5.1282 0001112  93.9461 266.1658 15.08856666 46750,6917.829,95.437,540.464,538.925,0.0
52659.0,STARLINK-3960,PAYLOAD,2023-03-16 18:36:28,15.08832976,0.0001726,53.2177,2.4546,80.6833,279.4355,0.00083776,0.00013068,0.0,0 STARLINK-3960,1 52659U 22053D   23075.77532677  .00013068  00000-0  83776-3 0  9992,2 52659  53.2177   2.4546 0001726  80.6833 279.4355 15.08832976 46845,6917.902,95.438,540.961,538.573,0.0
52659.0,STARLINK-3960,PAYLOAD,2023-03-17 04:08:47,15.0882725,0.00013,53.2161,0.6654,70.1622,289.951,0.00095964,0.00015012,0.0,0 STARLINK-3960,1 52659U 22053D   23076.17277379  .00015012  00000-0  95964-3 0  9995,2 52659  53.2161   0.6654 0001300  70.1622 289.9510 15.08827250 46901,6917.919,95.438,540.684,538.885,0.0
52659.0,STARLINK-3960,PAYLOAD,2023-03-17 12:05:43,15.08823836,0.0001349,53.216,359.1788,66.5055,293.6078,0.00028139,4.191e-05,0.0,0 STARLINK-3960,1 52659U 22053D   23076.50397645  .00004191  00000-0  28139-3 0  9997,2 52659  53.2160 359.1788 0001349  66.5055 293.6078 15.08823836 46943,6917.93,95.439,540.728,538.862,0.0
52659.0,STARLINK-3960,PAYLOAD,2023-03-17 18:27:16,15.08830214,0.0001191,53.2161,357.9896,74.9362,285.1761,0.00027104,4.027e-05,0.0,0 STARLINK-3960,1 52659U 22053D   23076.76893555  .00004027  00000-0  27104-3 0  9995,2 52659  53.2161 357.9896 0001191  74.9362 285.1761 15.08830214 46997,6917.91,95.438,540.599,538.951,0.0
52659.0,STARLINK-3960,PAYLOAD,2023-03-18 11:56:30,15.08848674,0.0001519,53.216,354.7203,67.3105,292.8047,0.00049933,7.67e-05,0.0,0 STARLINK-3960,1 52659U 22053D   23077.49757328  .00007670  00000-0  49933-3 0  9994,2 52659  53.2160 354.7203 0001519  67.3105 292.8047 15.08848674 47103,6917.854,95.437,540.77,538.668,0.0
52659.0,STARLINK-3960,PAYLOAD,2023-03-18 18:18:02,15.0884422,0.00016,53.2166,353.5301,80.7145,279.4028,0.00024268,3.577e-05,0.0,0 STARLINK-3960,1 52659U 22053D   23077.76253384  .00003577  00000-0  24268-3 0  9993,2 52659  53.2166 353.5301 0001600  80.7145 279.4028 15.08844220 47135,6917.867,95.437,540.839,538.626,0.0
52659.0,STARLINK-3960,PAYLOAD,2023-03-19 11:47:17,15.08845434,0.0001527,53.2158,350.2573,89.3296,270.7871,0.00017212,2.453e-05,0.0,0 STARLINK-3960,1 52659U 22053D   23078.49117138  .00002453  00000-0  17212-3 0  9993,2 52659  53.2158 350.2573 0001527  89.3296 270.7871 15.08845434 47252,6917.864,95.437,540.785,538.672,0.0
52659.0,STARLINK-3960,PAYLOAD,2023-03-19 21:19:35,15.08846904,0.0001511,53.215,348.4728,94.3741,265.7423,0.00015059,2.11e-05,0.0,0 STARLINK-3960,1 52659U 22053D   23078.88860955  .00002110  00000-0  15059-3 0  9995,2 52659  53.2150 348.4728 0001511  94.3741 265.7423 15.08846904 47305,6917.859,95.437,540.77,538.679,0.0
52659.0,STARLINK-3960,PAYLOAD,2023-03-20 03:41:07,15.0885929,0.0001473,53.2174,347.286,92.012,268.1041,0.00036092,5.464e-05,0.0,0 STARLINK-3960,1 52659U 22053D   23079.15356420  .00005464  00000-0  36092-3 0  9998,2 52659  53.2174 347.2860 0001473  92.0120 268.1041 15.08859290 47358,6917.821,95.436,540.705,538.667,0.0
